     2.100          NAVIGATION                              RINEX VERSION / TYPE
fic2rin                                 05/22/2014 00:26:31 PGM / RUN BY / DATE
                                                            END OF HEADER
30 14  5 21  8  0  0.0 -.139549374580D-04 -.534328137292D-11  .000000000000D+00
     .290000000000D+02  .400312500000D+02  .426732060817D-08 -.156838670322D+01
     .199116766453D-05  .682329875417D-03  .997446477413D-05  .515370469856D+04
     .288000000000D+06 -.242143869400D-07  .164446005402D+01  .707805156708D-07
     .958856987648D+00  .186750000000D+03  .268989302953D+01 -.798247535928D-08
    -.975040614355D-10  .100000000000D+01  .179300000000D+04  .000000000000D+00
     .240000000000D+01  .630000000000D+02  .325962901115D-08  .290000000000D+02
     .280806000000D+06  .400000000000D+01
31 14  5 21  8  0  0.0  .334218144417D-03  .000000000000D+00  .000000000000D+00
     .880000000000D+02  .215625000000D+02  .394909306701D-08 -.197716438252D+01
     .113062560558D-05  .798536639195D-02  .951066613197D-05  .515355618477D+04
     .288000000000D+06 -.145286321640D-06  .159600470354D+01  .577419996262D-07
     .978232629556D+00  .208562500000D+03 -.635487798343D+00 -.787211361942D-08
    -.132862677121D-09  .100000000000D+01  .179300000000D+04  .000000000000D+00
     .240000000000D+01  .000000000000D+00 -.130385160446D-07  .880000000000D+02
     .280806000000D+06  .400000000000D+01
32 14  5 21  8  0  0.0 -.424355268478D-03  .818545231596D-11  .000000000000D+00
     .990000000000D+02  .461875000000D+02  .524128974933D-08 -.129339857010D+01
     .242516398430D-05  .113903370220D-01  .697933137417D-05  .515373612595D+04
     .288000000000D+06  .521540641785D-07 -.443337827166D+00 -.134110450745D-06
     .947917265770D+00  .239531250000D+03 -.156631995254D+00 -.846999566646D-08
     .298941023522D-09  .100000000000D+01  .179300000000D+04  .000000000000D+00
     .340000000000D+01  .000000000000D+00 -.325962901115D-08  .990000000000D+02
     .280806000000D+06  .400000000000D+01
 6 14  5 21  7 59 44.0  .000000000000D+00  .000000000000D+00  .000000000000D+00
     .100000000000D+01 -.329687500000D+02  .438768276460D-08 -.250028197755D+01
    -.163353979588D-05  .356438104063D-03  .104457139969D-04  .518124076653D+04
     .287984000000D+06  .372529029846D-08 -.157948178554D+01 -.186264514923D-08
     .960471788808D+00  .175406250000D+03  .248409486800D+01 -.768174854709D-08
     .121790787361D-09  .100000000000D+01  .179300000000D+04  .000000000000D+00
     .240000000000D+01  .630000000000D+02  .605359673500D-08  .100000000000D+01
     .281256000000D+06  .400000000000D+01
19 14  5 21  7 59 44.0 -.458097085357D-03 -.216004991671D-11  .000000000000D+00
     .300000000000D+01 -.678125000000D+02  .456626163170D-08  .115337087498D+00
    -.346824526787D-05  .103269112296D-01  .620260834694D-05  .515361496353D+04
     .287984000000D+06  .800937414169D-07 -.252924973777D+01  .931322574615D-07
     .965840701085D+00  .263312500000D+03  .430791952900D+00 -.832570394184D-08
    -.357157734196D-10  .100000000000D+01  .179300000000D+04  .000000000000D+00
     .240000000000D+01  .000000000000D+00 -.149011611938D-07  .300000000000D+01
     .281706000000D+06  .400000000000D+01
10 14  5 21  7 59 44.0 -.126435887069D-03 -.159161572810D-11  .000000000000D+00
     .000000000000D+00  .470625000000D+02  .536343769442D-08  .196486123563D+01
     .228732824326D-05  .135498360032D-01  .779889523983D-05  .515372763252D+04
     .287984000000D+06 -.271946191788D-06 -.514847375334D+00 -.203028321266D-06
     .942187401864D+00  .221031250000D+03  .865082955686D+00 -.839213528041D-08
     .238938524177D-09  .100000000000D+01  .179300000000D+04  .000000000000D+00
     .240000000000D+01  .000000000000D+00 -.279396772385D-08  .000000000000D+00
     .282036000000D+06  .400000000000D+01
 4 14  5 21  7 59 44.0  .692112371325D-05  .113686837722D-12  .000000000000D+00
     .000000000000D+00 -.360937500000D+02  .497270713321D-08  .274367702107D+01
    -.195764005184D-05  .105580459349D-01  .116806477308D-04  .515374030495D+04
     .287984000000D+06  .353902578354D-07 -.158404031288D+01 -.128522515297D-06
     .938099005189D+00  .141562500000D+03  .109797614042D+01 -.800033324599D-08
     .120719314158D-09  .100000000000D+01  .179300000000D+04  .000000000000D+00
     .240000000000D+01  .000000000000D+00 -.651925802231D-08  .000000000000D+00
     .284736000000D+06  .400000000000D+01
 6 14  5 21  7 59 28.0  .000000000000D+00  .000000000000D+00  .000000000000D+00
     .930000000000D+02 -.329687500000D+02  .438768276460D-08 -.250257865945D+01
    -.163353979588D-05  .356438104063D-03  .104457139969D-04  .518124076653D+04
     .287968000000D+06  .372529029846D-08 -.157948166265D+01 -.186264514923D-08
     .960471787345D+00  .175406250000D+03  .248409486800D+01 -.768174854709D-08
     .121790787361D-09  .100000000000D+01  .179300000000D+04  .000000000000D+00
     .240000000000D+01  .630000000000D+02  .605359673500D-08  .930000000000D+02
     .285276000000D+06  .400000000000D+01
 2 14  5 21  7 59 44.0  .496543012559D-03  .216004991671D-11  .000000000000D+00
     .400000000000D+01 -.355000000000D+02  .516378652101D-08 -.617681536915D+00
    -.160373747349D-05  .135502417106D-01  .113639980555D-04  .515360957146D+04
     .287984000000D+06  .106170773506D-06 -.160007032697D+01  .232830643654D-06
     .939081929606D+00  .149593750000D+03 -.242494006677D+01 -.840677874751D-08
     .135005623526D-09  .100000000000D+01  .179300000000D+04  .000000000000D+00
     .240000000000D+01  .000000000000D+00 -.204890966415D-07  .400000000000D+01
     .286506000000D+06  .400000000000D+01
32 14  5 21  7 59 44.0 -.424352940172D-03  .818545231596D-11  .000000000000D+00
     .100000000000D+01  .461875000000D+02  .524128974933D-08 -.129573252423D+01
     .242516398430D-05  .113903337624D-01  .697933137417D-05  .515373612785D+04
     .287984000000D+06  .521540641785D-07 -.443337704281D+00 -.134110450745D-06
     .947917255530D+00  .239531250000D+03 -.156631734855D+00 -.846999566646D-08
     .298941023522D-09  .100000000000D+01  .179300000000D+04  .000000000000D+00
     .240000000000D+01  .000000000000D+00 -.325962901115D-08  .100000000000D+01
     .286986000000D+06  .400000000000D+01
 6 14  5 21  9 59 28.0  .000000000000D+00  .000000000000D+00  .000000000000D+00
     .940000000000D+02 -.435937500000D+02  .438268255632D-08 -.147292211582D+01
    -.235252082348D-05  .356752774678D-03  .106245279312D-04  .518123814774D+04
     .295168000000D+06  .745058059692D-08 -.157953700631D+01 -.745058059692D-08
     .960472654856D+00  .173343750000D+03  .248794566044D+01 -.768674875537D-08
     .125362364703D-09  .100000000000D+01  .179300000000D+04  .000000000000D+00
     .240000000000D+01  .630000000000D+02  .605359673500D-08  .940000000000D+02
     .288006000000D+06  .400000000000D+01
 2 14  5 21  9 59 44.0  .496558845043D-03  .216004991671D-11  .000000000000D+00
     .500000000000D+01 -.270000000000D+02  .501985195413D-08  .432558814154D+00
    -.147707760334D-05  .135515792063D-01  .112839043140D-04  .515361217690D+04
     .295184000000D+06 -.949949026108D-07 -.160013058457D+01  .260770320892D-06
     .939082839541D+00  .154093750000D+03 -.242495723997D+01 -.837320592049D-08
     .617882880159D-10  .100000000000D+01  .179300000000D+04  .000000000000D+00
     .240000000000D+01  .000000000000D+00 -.204890966415D-07  .500000000000D+01
     .288006000000D+06  .400000000000D+01
 4 14  5 21  9 59 44.0  .692158937454D-05  .113686837722D-12  .000000000000D+00
     .420000000000D+02 -.306562500000D+02  .492556231230D-08 -.248945751460D+01
    -.193901360035D-05  .105589185841D-01  .106878578663D-04  .515373845482D+04
     .295184000000D+06  .132247805595D-06 -.158409858676D+01 -.428408384323D-07
     .938100084823D+00  .155187500000D+03  .109806844470D+01 -.803604901941D-08
     .217509060125D-09  .100000000000D+01  .179300000000D+04  .000000000000D+00
     .240000000000D+01  .000000000000D+00 -.651925802231D-08  .420000000000D+02
     .288006000000D+06  .400000000000D+01
10 14  5 21  9 59 44.0 -.126447062939D-03 -.159161572810D-11  .000000000000D+00
     .100000000000D+01  .518437500000D+02  .521486007700D-08  .301497176881D+01
     .248663127422D-05  .135489177192D-01  .737234950066D-05  .515372962379D+04
     .295184000000D+06  .745058059692D-08 -.514906638145D+00 -.188127160072D-06
     .942190111189D+00  .227531250000D+03  .865125257425D+00 -.816926885427D-08
     .237509893240D-09  .100000000000D+01  .179300000000D+04  .000000000000D+00
     .240000000000D+01  .000000000000D+00 -.279396772385D-08  .100000000000D+01
     .288006000000D+06  .400000000000D+01
19 14  5 21  9 59 44.0 -.458112917840D-03 -.216004991671D-11  .000000000000D+00
     .150000000000D+02 -.650312500000D+02  .452018828399D-08  .116557514179D+01
    -.336952507496D-05  .103271385888D-01  .603497028351D-05  .515361506844D+04
     .295184000000D+06 -.633299350739D-07 -.252930882064D+01  .763684511185D-07
     .965840268061D+00  .267031250000D+03  .430770060331D+00 -.825748681461D-08
    -.140362989539D-09  .100000000000D+01  .179300000000D+04  .000000000000D+00
     .240000000000D+01  .000000000000D+00 -.149011611938D-07  .150000000000D+02
     .288006000000D+06  .400000000000D+01
32 14  5 21  9 59 44.0 -.424293801188D-03  .818545231596D-11  .000000000000D+00
     .600000000000D+01  .440937500000D+02  .525093300815D-08 -.245553241215D+00
     .236555933952D-05  .113905176986D-01  .714883208275D-05  .515373685265D+04
     .295184000000D+06  .117346644402D-06 -.443398544118D+00 -.763684511185D-07
     .947919133917D+00  .236906250000D+03 -.156663582581D+00 -.852142638018D-08
     .256082095419D-09  .100000000000D+01  .179300000000D+04  .000000000000D+00
     .240000000000D+01  .000000000000D+00 -.325962901115D-08  .600000000000D+01
     .288006000000D+06  .400000000000D+01
